YAMAL 202               
1 28089U 03053A   25208.48224640 -.00000090  00000+0  00000+0 0  9993
2 28089   5.5197  74.9062 0003780  72.4227 135.1682  1.00272292 79441
